#aV2015  7 19  1 14   28.000000      10   BCE WGS84      ARL
## 1854     4468.000000   900.00000000 57222 0.0517129629630
+   14     2  5 12 13 15 16 18 20 21 22 24 25 26 29  0  0  0
+          0  0  0  0  0  0  0  0  0  0  0  0  0  0  0  0  0
+          0  0  0  0  0  0  0  0  0  0  0  0  0  0  0  0  0
+          0  0  0  0  0  0  0  0  0  0  0  0  0  0  0  0  0
+          0  0  0  0  0  0  0  0  0  0  0  0  0  0  0  0  0
++         0  0  0  0  0  0  0  0  0  0  0  0  0  0  0  0  0
++         0  0  0  0  0  0  0  0  0  0  0  0  0  0  0  0  0
++         0  0  0  0  0  0  0  0  0  0  0  0  0  0  0  0  0
++         0  0  0  0  0  0  0  0  0  0  0  0  0  0  0  0  0
++         0  0  0  0  0  0  0  0  0  0  0  0  0  0  0  0  0
%c cc cc ccc ccc cccc cccc cccc cccc ccccc ccccc ccccc ccccc
%c cc cc ccc ccc cccc cccc cccc cccc ccccc ccccc ccccc ccccc
%f  0.0000000  0.000000000  0.00000000000  0.000000000000000
%f  0.0000000  0.000000000  0.00000000000  0.000000000000000
%i    0    0    0    0      0      0      0      0         0
%i    0    0    0    0      0      0      0      0         0
/* CCCCCCCCCCCCCCCCCCCCCCCCCCCCCCCCCCCCCCCCCCCCCCCCCCCCCCCCC
/* CCCCCCCCCCCCCCCCCCCCCCCCCCCCCCCCCCCCCCCCCCCCCCCCCCCCCCCCC
/* CCCCCCCCCCCCCCCCCCCCCCCCCCCCCCCCCCCCCCCCCCCCCCCCCCCCCCCCC
/* CCCCCCCCCCCCCCCCCCCCCCCCCCCCCCCCCCCCCCCCCCCCCCCCCCCCCCCCC
*  2015  7 19  2 44 28.00000000
P  2  21620.021884 -14899.262923   2138.964795    579.090263
V  2     39.354804     20.373450   -314.538655      0.000000
P  5  15050.201784  -8168.746032  20296.355146   -216.398806
V  5    218.627097    139.059503   -104.005898      0.000000
P 12  -2613.619814 -17461.896110 -20016.460177    311.160885
V 12    212.988985    131.901011   -141.551982      0.000000
P 13  12455.568597 -18066.089257  14913.117603   -133.380719
V 13     -6.288734    191.692839    234.168187     -0.000000
P 15   4198.653491 -25093.522145   6928.853124   -261.243938
V 15     41.257304     88.846365    296.120413     -0.000000
P 18 -20709.559260 -16199.208166   5234.754070    418.367854
V 18     69.619723     -1.185149    298.110575      0.000000
P 20  -2413.143864 -17618.951960  19555.783083    339.584434
V 20    233.605250     98.586126    117.649306      0.000000
P 21 -13728.547083 -10068.389963  21158.173582   -464.889230
V 21    215.150417   -133.389059     75.339477     -0.000000
P 25 -15128.824608 -18390.147649 -12035.065910    -14.697547
V 25    138.256787     61.571664   -268.586891     -0.000000
P 26 -22102.725061  -1083.141439  14680.911639    -10.870663
V 26   -150.207242   -112.653326   -234.255897     -0.000000
P 29  -5463.121541 -23879.395031  10341.262323    623.169860
V 29     29.386170   -129.060536   -282.470010      0.000000
*  2015  7 19  2 59 28.00000000
P  2  21844.522781 -14634.169703   -702.567794    579.092310
V  2     10.842287     39.099473   -315.952052      0.000000
P  5  16995.187092  -6995.224651  19188.341862   -216.394918
V  5    212.739679    121.556162   -141.849828      0.000000
P 12   -607.212402 -16296.366368 -21117.088664    311.163853
V 12    232.277861    126.411862   -102.674771      0.000000
P 13  12436.542060 -16225.173528  16885.808451   -133.383686
V 13      2.599342    216.754668    203.552998     -0.000000
P 15   4599.914855 -24154.482509   9525.331571   -261.245779
V 15     48.458837    119.425332    279.997304     -0.000000
P 16 -17315.459273   4698.851211  19629.368411   -107.038730
V 16   -210.608262   -133.183304   -149.695237      0.000000
P 18 -19953.970564 -16156.121775   7866.682752    418.370617
V 18     98.310211     10.111665    285.927403      0.000000
P 20   -242.292631 -16758.577917  20440.881323    339.587299
V 20    248.113191     92.074903     78.747965      0.000000
P 21 -11796.524001 -11333.989421  21664.064904   -464.892095
V 21    213.448377   -147.528074     36.920161     -0.000000
P 22 -24876.404619  -8542.358659  -4079.849407    372.480532
V 22    -32.754482    -58.170651    301.935955      0.000000
P 25 -13753.532965 -17807.970495 -14343.462051    -14.701640
V 25    167.136297     67.033845   -243.643887     -0.000000
P 26 -23371.294544  -2002.842968  12452.230900    -10.875881
V 26   -130.932546    -91.911594   -260.280584     -0.000000
P 29  -5234.078169 -24900.777501   7717.488597    623.171702
V 29     22.128783    -97.495611   -299.727280      0.000000
*  2015  7 19  3 14 28.00000000
P  2  21822.304682 -14185.701932  -3531.614980    579.094356
V  2    -15.333821     61.021790   -311.761181      0.000000
P  5  18864.530003  -5982.091550  17750.495323   -216.391029
V  5    201.826144    103.565960   -177.195929      0.000000
P 12   1555.684582 -15198.003607 -21859.252426    311.166820
V 12    247.644986    117.077962    -62.005723      0.000000
P 13  12511.267610 -14176.756669  18566.428024   -133.386653
V 13     14.433867    237.688959    169.359355     -0.000000
P 15   5080.720356 -22952.007181  11954.291736   -261.247621
V 15     58.856434    147.247979    258.954784     -0.000000
P 16 -19170.298760   3595.186764  18117.865705   -107.035046
V 16   -200.686893   -112.020736   -185.692148      0.000000
P 18 -18940.281458 -16029.410315  10367.614180    418.373379
V 18    126.832330     17.383790    269.049157      0.000000
P 20   2040.121413 -15970.107350  20969.190092    339.590164
V 20    258.309481     82.718370     38.482556      0.000000
P 21  -9898.985968 -12717.130473  21820.769075   -464.894960
V 21    207.545825   -159.386410     -2.159087     -0.000000
P 22 -25042.764018  -8996.532498  -1335.172645    372.484011
V 22     -3.877041    -43.265628    307.088540      0.000000
P 25 -12125.291129 -17197.195737 -16408.416158    -14.705733
V 25    194.311455     67.957278   -214.568806     -0.000000
P 26 -24446.630006  -2742.587049  10009.174910    -10.881100
V 26   -107.348826    -72.798110   -281.822193     -0.000000
P 29  -5052.618200 -25628.584188   4961.325751    623.173543
V 29     18.864784    -63.981049   -311.844315      0.000000
*  2015  7 19  3 29 28.00000000
P  2  21577.865808 -13528.022169  -6297.788811    579.096402
V  2    -38.421763     85.466033   -301.996604      0.000000
P  5  20613.514832  -5129.708100  16008.018094   -216.387141
V  5    186.031781     85.978752   -209.447365      0.000000
P 12   3836.670511 -14198.452036 -22229.858322    311.169787
V 12    258.423136    104.578493    -20.222679      0.000000
P 13  12703.038627 -11960.929642  19925.354985   -133.389621
V 13     28.478573    253.867464    132.171286     -0.000000
P 15   5667.476690 -21514.459777  14173.109100   -261.249463
V 15     71.903184    171.544569    233.374645     -0.000000
P 16 -20912.164669   2681.840419  16296.702914   -107.031363
V 16   -185.535156    -91.050087   -218.411818      0.000000
P 18 -17673.809805 -15855.382990  12696.639464    418.376142
V 18    154.344015     20.639273    247.786242      0.000000
P 20   4393.118167 -15276.007166  21131.630181    339.593029
V 20    263.736492     71.230184     -2.433923      0.000000
P 21  -8071.936015 -14194.084943  21624.985170   -464.897825
V 21    197.864182   -168.265225    -41.310104     -0.000000
P 22 -24941.179647  -9331.571973   1432.295183    372.487490
V 22     26.648425    -31.761619    306.997501      0.000000
P 24  11930.784163 -20983.990292 -10947.243727     -1.565235
V 24    122.253271    -71.843418    273.295617     -0.000000
P 25 -10263.617191 -16597.543716 -18194.881892    -14.709825
V 25    218.864908     64.622424   -181.848185     -0.000000
P 26 -25292.399683  -3320.596722   7393.817140    -10.886318
V 26    -80.026932    -56.089371   -298.510640     -0.000000
P 29  -4881.609861 -26049.588260   2120.046028    623.175385
V 29     19.829237    -29.485965   -318.612913      0.000000
EOF
